IRIDIUM 39              
1 25042U 97069D   25150.59087963  .00000567  00000+0  14316-3 0  9999
2 25042  86.3943 218.6702 0018078  13.5108 346.6576 14.49200898446417
IRIDIUM 38              
1 25043U 97069E   25150.49563767  .00000464  00000+0  14669-3 0  9997
2 25043  86.3972 240.5936 0003644 122.7499 237.4051 14.38103568443418
IRIDIUM 44              
1 25078U 97077B   25150.48234949  .00000420  00000+0  12667-3 0  9998
2 25078  86.3983 228.7191 0004190  91.0022 269.1657 14.40228727441157
IRIDIUM 24              
1 25105U 97082B   25150.54763663  .00000534  00000+0  15650-3 0  9993
2 25105  86.3897  87.7826 0012932 128.6515 231.5844 14.42082666440676
IRIDIUM 51              
1 25262U 98018A   25150.47855229  .00036242  00000+0  83031-3 0  9992
2 25262  86.3846  64.5954 0085881 320.2512  39.2467 15.38720919444303
IRIDIUM 57              
1 25273U 98019B   25150.47137034  .00000330  00000+0  10707-3 0  9991
2 25273  86.3965 152.6834 0002339  91.3423 268.8042 14.35881910422240
